[{"OBJECT_NAME":"SL-8 R/B","OBJECT_ID":"1979-089B","EPOCH":"2026-03-20T06:54:52.855200","MEAN_MOTION":14.42356812,"ECCENTRICITY":0.00169772,"INCLINATION":74.0673,"RA_OF_ASC_NODE":71.4224,"ARG_OF_PERICENTER":242.9355,"MEAN_ANOMALY":117.007,"EPHEMERIS_TYPE":0,"CLASSIFICATION_TYPE":"U","NORAD_CAT_ID":11574,"ELEMENT_SET_NO":999,"REV_AT_EPOCH":43763,"BSTAR":5.9747531e-5,"MEAN_MOTION_DOT":1.71e-6,"MEAN_MOTION_DDOT":0},{"OBJECT_NAME":"SL-14 R/B","OBJECT_ID":"1980-005B","EPOCH":"2026-03-20T01:30:59.058720","MEAN_MOTION":14.90941506,"ECCENTRICITY":0.0016942,"INCLINATION":82.5125,"RA_OF_ASC_NODE":297.395,"ARG_OF_PERICENTER":125.6222,"MEAN_ANOMALY":234.6578,"EPHEMERIS_TYPE":0,"CLASSIFICATION_TYPE":"U","NORAD_CAT_ID":11672,"ELEMENT_SET_NO":999,"REV_AT_EPOCH":47803,"BSTAR":4.5833603e-5,"MEAN_MOTION_DOT":4.79e-6,"MEAN_MOTION_DDOT":0},{"OBJECT_NAME":"SL-8 R/B","OBJECT_ID":"1981-003B","EPOCH":"2026-03-19T23:59:19.951008","MEAN_MOTION":15.11391095,"ECCENTRICITY":0.02614312,"INCLINATION":82.9357,"RA_OF_ASC_NODE":280.4886,"ARG_OF_PERICENTER":142.704,"MEAN_ANOMALY":219.2671,"EPHEMERIS_TYPE":0,"CLASSIFICATION_TYPE":"U","NORAD_CAT_ID":12139,"ELEMENT_SET_NO":999,"REV_AT_EPOCH":31623,"BSTAR":0.00045513345,"MEAN_MOTION_DOT":0.00017956,"MEAN_MOTION_DDOT":0},{"OBJECT_NAME":"SL-3 R/B","OBJECT_ID":"1981-046B","EPOCH":"2026-03-20T05:32:45.798432","MEAN_MOTION":15.42236399,"ECCENTRICITY":0.00187332,"INCLINATION":81.2279,"RA_OF_ASC_NODE":277.082,"ARG_OF_PERICENTER":345.4337,"MEAN_ANOMALY":14.6363,"EPHEMERIS_TYPE":0,"CLASSIFICATION_TYPE":"U","NORAD_CAT_ID":12465,"ELEMENT_SET_NO":999,"REV_AT_EPOCH":44005,"BSTAR":0.00018053771,"MEAN_MOTION_DOT":7.834e-5,"MEAN_MOTION_DDOT":0},{"OBJECT_NAME":"SL-3 R/B","OBJECT_ID":"1981-103B","EPOCH":"2026-03-20T07:04:56.329824","MEAN_MOTION":15.21494455,"ECCENTRICITY":0.00124269,"INCLINATION":81.1605,"RA_OF_ASC_NODE":200.9912,"ARG_OF_PERICENTER":248.3544,"MEAN_ANOMALY":111.6365,"EPHEMERIS_TYPE":0,"CLASSIFICATION_TYPE":"U","NORAD_CAT_ID":12904,"ELEMENT_SET_NO":999,"REV_AT_EPOCH":97484,"BSTAR":0.00018772829,"MEAN_MOTION_DOT":4.255e-5,"MEAN_MOTION_DDOT":0},{"OBJECT_NAME":"SL-3 R/B","OBJECT_ID":"1982-013B","EPOCH":"2026-03-20T05:35:39.314688","MEAN_MOTION":15.22109081,"ECCENTRICITY":0.00232111,"INCLINATION":81.175,"RA_OF_ASC_NODE":148.4138,"ARG_OF_PERICENTER":142.497,"MEAN_ANOMALY":217.7887,"EPHEMERIS_TYPE":0,"CLASSIFICATION_TYPE":"U","NORAD_CAT_ID":13068,"ELEMENT_SET_NO":999,"REV_AT_EPOCH":40595,"BSTAR":0.00012203333,"MEAN_MOTION_DOT":2.841e-5,"MEAN_MOTION_DDOT":0},{"OBJECT_NAME":"SL-3 R/B","OBJECT_ID":"1982-039B","EPOCH":"2026-03-20T06:12:13.230144","MEAN_MOTION":15.10136144,"ECCENTRICITY":0.00291986,"INCLINATION":81.1579,"RA_OF_ASC_NODE":203.7763,"ARG_OF_PERICENTER":289.7825,"MEAN_ANOMALY":70.0253,"EPHEMERIS_TYPE":0,"CLASSIFICATION_TYPE":"U","NORAD_CAT_ID":13154,"ELEMENT_SET_NO":999,"REV_AT_EPOCH":38323,"BSTAR":0.00011589681,"MEAN_MOTION_DOT":1.931e-5,"MEAN_MOTION_DDOT":0},{"OBJECT_NAME":"SL-3 R/B","OBJECT_ID":"1982-079B","EPOCH":"2026-03-20T07:08:03.367680","MEAN_MOTION":15.24939564,"ECCENTRICITY":0.00254027,"INCLINATION":81.149,"RA_OF_ASC_NODE":180.553,"ARG_OF_PERICENTER":129.6284,"MEAN_ANOMALY":230.7197,"EPHEMERIS_TYPE":0,"CLASSIFICATION_TYPE":"U","NORAD_CAT_ID":13403,"ELEMENT_SET_NO":999,"REV_AT_EPOCH":37931,"BSTAR":0.00019578876,"MEAN_MOTION_DOT":4.947e-5,"MEAN_MOTION_DDOT":0},{"OBJECT_NAME":"SL-14 R/B","OBJECT_ID":"1982-092B","EPOCH":"2026-03-20T05:03:34.043616","MEAN_MOTION":14.86675504,"ECCENTRICITY":0.0018749,"INCLINATION":82.5673,"RA_OF_ASC_NODE":131.5583,"ARG_OF_PERICENTER":265.9137,"MEAN_ANOMALY":156.4024,"EPHEMERIS_TYPE":0,"CLASSIFICATION_TYPE":"U","NORAD_CAT_ID":13553,"ELEMENT_SET_NO":999,"REV_AT_EPOCH":33049,"BSTAR":3.8658226e-5,"MEAN_MOTION_DOT":3.69e-6,"MEAN_MOTION_DDOT":0},{"OBJECT_NAME":"SL-3 R/B","OBJECT_ID":"1983-010B","EPOCH":"2026-03-20T04:16:00.172992","MEAN_MOTION":15.46696803,"ECCENTRICITY":0.00169711,"INCLINATION":81.1062,"RA_OF_ASC_NODE":349.3876,"ARG_OF_PERICENTER":16.3357,"MEAN_ANOMALY":343.8431,"EPHEMERIS_TYPE":0,"CLASSIFICATION_TYPE":"U","NORAD_CAT_ID":13819,"ELEMENT_SET_NO":999,"REV_AT_EPOCH":35956,"BSTAR":0.00020329031,"MEAN_MOTION_DOT":0.00010243,"MEAN_MOTION_DDOT":0},{"OBJECT_NAME":"SL-3 R/B","OBJECT_ID":"1983-075B","EPOCH":"2026-03-20T06:55:16.391424","MEAN_MOTION":15.38648365,"ECCENTRICITY":0.00212664,"INCLINATION":97.6137,"RA_OF_ASC_NODE":84.2686,"ARG_OF_PERICENTER":186.4025,"MEAN_ANOMALY":173.6951,"EPHEMERIS_TYPE":0,"CLASSIFICATION_TYPE":"U","NORAD_CAT_ID":14208,"ELEMENT_SET_NO":999,"REV_AT_EPOCH":33178,"BSTAR":0.00019801585,"MEAN_MOTION_DOT":7.527e-5,"MEAN_MOTION_DDOT":0},{"OBJECT_NAME":"COSMOS 1536","OBJECT_ID":"1984-013A","EPOCH":"2026-03-20T07:00:03.519360","MEAN_MOTION":15.23954354,"ECCENTRICITY":0.00126565,"INCLINATION":82.5411,"RA_OF_ASC_NODE":97.3074,"ARG_OF_PERICENTER":241.1697,"MEAN_ANOMALY":118.827,"EPHEMERIS_TYPE":0,"CLASSIFICATION_TYPE":"U","NORAD_CAT_ID":14699,"ELEMENT_SET_NO":999,"REV_AT_EPOCH":27423,"BSTAR":0.00018036753,"MEAN_MOTION_DOT":4.403e-5,"MEAN_MOTION_DDOT":0},{"OBJECT_NAME":"SL-14 R/B","OBJECT_ID":"1984-027B","EPOCH":"2026-03-19T22:16:53.010912","MEAN_MOTION":14.85986869,"ECCENTRICITY":0.0016676,"INCLINATION":82.5399,"RA_OF_ASC_NODE":235.4082,"ARG_OF_PERICENTER":302.201,"MEAN_ANOMALY":57.7589,"EPHEMERIS_TYPE":0,"CLASSIFICATION_TYPE":"U","NORAD_CAT_ID":14820,"ELEMENT_SET_NO":999,"REV_AT_EPOCH":24915,"BSTAR":4.8804e-5,"MEAN_MOTION_DOT":4.51e-6,"MEAN_MOTION_DDOT":0},{"OBJECT_NAME":"SL-8 R/B","OBJECT_ID":"1985-006B","EPOCH":"2026-03-20T04:28:01.196544","MEAN_MOTION":14.37790733,"ECCENTRICITY":0.00180188,"INCLINATION":74.0438,"RA_OF_ASC_NODE":241.832,"ARG_OF_PERICENTER":156.7381,"MEAN_ANOMALY":16.5173,"EPHEMERIS_TYPE":0,"CLASSIFICATION_TYPE":"U","NORAD_CAT_ID":15483,"ELEMENT_SET_NO":999,"REV_AT_EPOCH":15553,"BSTAR":0.0001061814,"MEAN_MOTION_DOT":2.94e-6,"MEAN_MOTION_DDOT":0},{"OBJECT_NAME":"SL-12 R/B(2)","OBJECT_ID":"1985-042D","EPOCH":"2026-03-20T05:40:28.232832","MEAN_MOTION":14.21985182,"ECCENTRICITY":0.00329448,"INCLINATION":71.1069,"RA_OF_ASC_NODE":65.4441,"ARG_OF_PERICENTER":110.6921,"MEAN_ANOMALY":261.3614,"EPHEMERIS_TYPE":0,"CLASSIFICATION_TYPE":"U","NORAD_CAT_ID":15772,"ELEMENT_SET_NO":999,"REV_AT_EPOCH":11589,"BSTAR":2.8084441e-5,"MEAN_MOTION_DOT":1.5e-7,"MEAN_MOTION_DDOT":0},{"OBJECT_NAME":"SL-14 R/B","OBJECT_ID":"1985-069B","EPOCH":"2026-03-20T05:55:10.452000","MEAN_MOTION":14.86444426,"ECCENTRICITY":0.00194225,"INCLINATION":82.53,"RA_OF_ASC_NODE":15.0082,"ARG_OF_PERICENTER":153.0869,"MEAN_ANOMALY":207.136,"EPHEMERIS_TYPE":0,"CLASSIFICATION_TYPE":"U","NORAD_CAT_ID":15945,"ELEMENT_SET_NO":999,"REV_AT_EPOCH":17440,"BSTAR":4.792029e-5,"MEAN_MOTION_DOT":4.49e-6,"MEAN_MOTION_DDOT":0},{"OBJECT_NAME":"SL-16 R/B","OBJECT_ID":"1985-097B","EPOCH":"2026-03-20T07:10:08.649408","MEAN_MOTION":14.16600451,"ECCENTRICITY":0.00096049,"INCLINATION":71.0014,"RA_OF_ASC_NODE":118.2192,"ARG_OF_PERICENTER":246.9513,"MEAN_ANOMALY":187.6422,"EPHEMERIS_TYPE":0,"CLASSIFICATION_TYPE":"U","NORAD_CAT_ID":16182,"ELEMENT_SET_NO":999,"REV_AT_EPOCH":8873,"BSTAR":0.00016297904,"MEAN_MOTION_DOT":2.77e-6,"MEAN_MOTION_DDOT":0}]
