SL-8 R/B                
1 11574U 79089B   26079.28811175  .00000171  00000+0  59748-4 0  9993
2 11574  74.0673  71.4224 0016977 242.9355 117.0070 14.42356812437632
SL-14 R/B               
1 11672U 80005B   26079.06318355  .00000479  00000+0  45834-4 0  9992
2 11672  82.5125 297.3950 0016942 125.6222 234.6578 14.90941506478035
SL-8 R/B                
1 12139U 81003B   26078.99953647  .00017956  00000+0  45513-3 0  9991
2 12139  82.9357 280.4886 0261431 142.7040 219.2671 15.11391095316231
SL-3 R/B                
1 12465U 81046B   26079.23108563  .00007834  00000+0  18054-3 0  9991
2 12465  81.2279 277.0820 0018733 345.4337  14.6363 15.42236399440056
SL-3 R/B                
1 12904U 81103B   26079.29509641  .00004255  00000+0  18773-3 0  9993
2 12904  81.1605 200.9912 0012426 248.3544 111.6365 15.21494455974842
SL-3 R/B                
1 13068U 82013B   26079.23309392  .00002841  00000+0  12203-3 0  9992
2 13068  81.1750 148.4138 0023211 142.4970 217.7887 15.22109081405959
SL-3 R/B                
1 13154U 82039B   26079.25848646  .00001931  00000+0  11590-3 0  9995
2 13154  81.1579 203.7763 0029198 289.7825  70.0253 15.10136144383237
SL-3 R/B                
1 13403U 82079B   26079.29726120  .00004947  00000+0  19579-3 0  9997
2 13403  81.1490 180.5530 0025402 129.6284 230.7197 15.24939564379313
SL-14 R/B               
1 13553U 82092B   26079.21081069  .00000369  00000+0  38658-4 0  9990
2 13553  82.5673 131.5583 0018749 265.9137 156.4024 14.86675504330495
SL-3 R/B                
1 13819U 83010B   26079.17777978  .00010243  00000+0  20329-3 0  9999
2 13819  81.1062 349.3876 0016971  16.3357 343.8431 15.46696803359563
SL-3 R/B                
1 14208U 83075B   26079.28838416  .00007527  00000+0  19802-3 0  9995
2 14208  97.6137  84.2686 0021266 186.4025 173.6951 15.38648365331780
COSMOS 1536             
1 14699U 84013A   26079.29170740  .00004403  00000+0  18037-3 0  9991
2 14699  82.5411  97.3074 0012656 241.1697 118.8270 15.23954354274238
SL-14 R/B               
1 14820U 84027B   26078.92839133  .00000451  00000+0  48804-4 0  9994
2 14820  82.5399 235.4082 0016676 302.2010  57.7589 14.85986869249157
SL-8 R/B                
1 15483U 85006B   26079.18612496  .00000294  00000+0  10618-3 0  9994
2 15483  74.0438 241.8320 0018018 156.7381  16.5173 14.37790733155534
SL-12 R/B(2)            
1 15772U 85042D   26079.23643788  .00000015  00000+0  28084-4 0  9997
2 15772  71.1069  65.4441 0032944 110.6921 261.3614 14.21985182115892
SL-14 R/B               
1 15945U 85069B   26079.24664875  .00000449  00000+0  47920-4 0  9990
2 15945  82.5300  15.0082 0019422 153.0869 207.1360 14.86444426174408
SL-16 R/B               
1 16182U 85097B   26079.29871122  .00000277  00000+0  16298-3 0  9997
2 16182  71.0014 118.2192 0009604 246.9513 187.6422 14.16600451 88730
